<?xml version="1.0" encoding="UTF-8"?>
<osm version="0.6" generator="GPSBabel">
  <node id="-1" visible="true" lat="40.7411920" lon="-88.7373990" timestamp="2009-07-06T21:14:11Z">
    <tag k="gps:hdop" v="0.880000"/>
    <tag k="gps:vdop" v="1.500000"/>
    <tag k="gps:sat" v="11"/>
    <tag k="gps:fix" v="2d"/>
    <tag k="created_by" v="GPSBabel"/>
    <tag k="name" v="TPT000&quot;"/>
    <tag k="amenity" v="pub"/>
    <tag k="building" v="yes"/>
  </node>
  <node id="-2" visible="true" lat="40.7414540" lon="-88.7374080" timestamp="2009-07-06T21:14:12Z">
    <tag k="gps:hdop" v="0.880000"/>
    <tag k="gps:vdop" v="1.500000"/>
    <tag k="gps:sat" v="11"/>
    <tag k="gps:fix" v="3d"/>
    <tag k="created_by" v="GPSBabel"/>
    <tag k="name" v="TPT001&amp;"/>
    <tag k="amenity" v="pub"/>
    <tag k="building" v="yes"/>
  </node>
  <node id="-3" visible="true" lat="40.7417170" lon="-88.7374150" timestamp="2009-07-06T21:14:13Z">
    <tag k="gps:hdop" v="0.880000"/>
    <tag k="gps:vdop" v="1.500000"/>
    <tag k="gps:sat" v="11"/>
    <tag k="gps:fix" v="dgps"/>
    <tag k="created_by" v="GPSBabel"/>
    <tag k="name" v="TPT002'"/>
    <tag k="amenity" v="pub"/>
    <tag k="building" v="yes"/>
  </node>
  <node id="-4" visible="true" lat="40.7419780" lon="-88.7374230" timestamp="2009-07-06T21:14:14Z">
    <tag k="gps:hdop" v="0.880000"/>
    <tag k="gps:vdop" v="1.500000"/>
    <tag k="gps:sat" v="11"/>
    <tag k="gps:fix" v="pps"/>
    <tag k="created_by" v="GPSBabel"/>
    <tag k="name" v="TPT003&lt;"/>
    <tag k="amenity" v="pub"/>
    <tag k="building" v="yes"/>
  </node>
  <node id="-5" visible="true" lat="40.7422380" lon="-88.7374310" timestamp="2009-07-06T21:14:15Z">
    <tag k="gps:hdop" v="0.880000"/>
    <tag k="gps:vdop" v="1.500000"/>
    <tag k="gps:sat" v="11"/>
    <tag k="gps:fix" v="none"/>
    <tag k="created_by" v="GPSBabel"/>
    <tag k="name" v="TPT004&gt;"/>
    <tag k="amenity" v="pub"/>
    <tag k="building" v="yes"/>
  </node>
  <node id="-6" visible="true" lat="40.7425000" lon="-88.7374390" timestamp="2009-07-06T21:14:16Z">
    <tag k="gps:hdop" v="0.880000"/>
    <tag k="gps:vdop" v="1.500000"/>
    <tag k="gps:sat" v="11"/>
    <tag k="gps:fix" v="2d"/>
    <tag k="created_by" v="GPSBabel"/>
    <tag k="name" v="TPT005"/>
    <tag k="amenity" v="pub"/>
    <tag k="building" v="yes"/>
  </node>
  <node id="-7" visible="true" lat="40.7427630" lon="-88.7374470" timestamp="2009-07-06T21:14:17Z">
    <tag k="gps:hdop" v="0.880000"/>
    <tag k="gps:vdop" v="1.500000"/>
    <tag k="gps:sat" v="11"/>
    <tag k="gps:fix" v="2d"/>
    <tag k="created_by" v="GPSBabel"/>
    <tag k="name" v="TPT006"/>
    <tag k="amenity" v="pub"/>
    <tag k="building" v="yes"/>
  </node>
  <node id="-8" visible="true" lat="40.7430240" lon="-88.7374530" timestamp="2009-07-06T21:14:18Z">
    <tag k="gps:hdop" v="0.880000"/>
    <tag k="gps:vdop" v="1.500000"/>
    <tag k="gps:sat" v="11"/>
    <tag k="gps:fix" v="2d"/>
    <tag k="created_by" v="GPSBabel"/>
    <tag k="name" v="TPT007"/>
    <tag k="amenity" v="pub"/>
    <tag k="building" v="yes"/>
  </node>
  <node id="-9" visible="true" lat="40.7432860" lon="-88.7374610" timestamp="2009-07-06T21:14:19Z">
    <tag k="gps:hdop" v="0.880000"/>
    <tag k="gps:vdop" v="1.500000"/>
    <tag k="gps:sat" v="11"/>
    <tag k="gps:fix" v="2d"/>
    <tag k="created_by" v="GPSBabel"/>
    <tag k="name" v="TPT008"/>
    <tag k="amenity" v="pub"/>
    <tag k="building" v="yes"/>
  </node>
  <node id="-10" visible="true" lat="40.7435480" lon="-88.7374670" timestamp="2009-07-06T21:14:20Z">
    <tag k="gps:hdop" v="0.880000"/>
    <tag k="gps:vdop" v="1.500000"/>
    <tag k="gps:sat" v="11"/>
    <tag k="gps:fix" v="2d"/>
    <tag k="created_by" v="GPSBabel"/>
    <tag k="name" v="TPT009"/>
    <tag k="amenity" v="pub"/>
    <tag k="building" v="yes"/>
  </node>
  <node id="-11" visible="true" lat="40.7438100" lon="-88.7374750" timestamp="2009-07-06T21:14:21Z">
    <tag k="gps:hdop" v="0.880000"/>
    <tag k="gps:vdop" v="1.500000"/>
    <tag k="gps:sat" v="11"/>
    <tag k="gps:fix" v="2d"/>
    <tag k="created_by" v="GPSBabel"/>
    <tag k="name" v="TPT010"/>
    <tag k="amenity" v="pub"/>
    <tag k="building" v="yes"/>
  </node>
  <node id="-12" visible="true" lat="40.7440720" lon="-88.7374790" timestamp="2009-07-06T21:14:22Z">
    <tag k="gps:hdop" v="0.880000"/>
    <tag k="gps:vdop" v="1.500000"/>
    <tag k="gps:sat" v="11"/>
    <tag k="gps:fix" v="2d"/>
    <tag k="created_by" v="GPSBabel"/>
    <tag k="name" v="TPT011"/>
    <tag k="amenity" v="pub"/>
    <tag k="building" v="yes"/>
  </node>
  <node id="-13" visible="true" lat="40.7443340" lon="-88.7374840" timestamp="2009-07-06T21:14:23Z">
    <tag k="gps:hdop" v="0.880000"/>
    <tag k="gps:vdop" v="1.500000"/>
    <tag k="gps:sat" v="11"/>
    <tag k="gps:fix" v="2d"/>
    <tag k="created_by" v="GPSBabel"/>
    <tag k="name" v="TPT012"/>
    <tag k="amenity" v="pub"/>
    <tag k="building" v="yes"/>
  </node>
  <node id="-14" visible="true" lat="40.7445960" lon="-88.7374890" timestamp="2009-07-06T21:14:24Z">
    <tag k="gps:hdop" v="0.880000"/>
    <tag k="gps:vdop" v="1.500000"/>
    <tag k="gps:sat" v="11"/>
    <tag k="gps:fix" v="2d"/>
    <tag k="created_by" v="GPSBabel"/>
    <tag k="name" v="TPT013"/>
    <tag k="amenity" v="pub"/>
    <tag k="building" v="yes"/>
  </node>
  <node id="-15" visible="true" lat="40.7448580" lon="-88.7374950" timestamp="2009-07-06T21:14:25Z">
    <tag k="gps:hdop" v="0.880000"/>
    <tag k="gps:vdop" v="1.500000"/>
    <tag k="gps:sat" v="11"/>
    <tag k="gps:fix" v="2d"/>
    <tag k="created_by" v="GPSBabel"/>
    <tag k="name" v="TPT014"/>
    <tag k="amenity" v="pub"/>
    <tag k="building" v="yes"/>
  </node>
  <node id="-16" visible="true" lat="40.7451200" lon="-88.7375000" timestamp="2009-07-06T21:14:26Z">
    <tag k="gps:hdop" v="0.880000"/>
    <tag k="gps:vdop" v="1.500000"/>
    <tag k="gps:sat" v="11"/>
    <tag k="gps:fix" v="2d"/>
    <tag k="created_by" v="GPSBabel"/>
    <tag k="name" v="TPT015"/>
    <tag k="amenity" v="pub"/>
    <tag k="building" v="yes"/>
  </node>
  <node id="-17" visible="true" lat="40.7453830" lon="-88.7375030" timestamp="2009-07-06T21:14:27Z">
    <tag k="gps:hdop" v="0.880000"/>
    <tag k="gps:vdop" v="1.500000"/>
    <tag k="gps:sat" v="11"/>
    <tag k="gps:fix" v="2d"/>
    <tag k="created_by" v="GPSBabel"/>
    <tag k="name" v="TPT016"/>
    <tag k="amenity" v="pub"/>
    <tag k="building" v="yes"/>
  </node>
  <node id="-18" visible="true" lat="40.7456470" lon="-88.7375020" timestamp="2009-07-06T21:14:28Z">
    <tag k="gps:hdop" v="0.880000"/>
    <tag k="gps:vdop" v="1.500000"/>
    <tag k="gps:sat" v="11"/>
    <tag k="gps:fix" v="2d"/>
    <tag k="created_by" v="GPSBabel"/>
    <tag k="name" v="TPT017"/>
    <tag k="amenity" v="pub"/>
    <tag k="building" v="yes"/>
  </node>
  <node id="-19" visible="true" lat="40.7459090" lon="-88.7374910" timestamp="2009-07-06T21:14:29Z">
    <tag k="gps:hdop" v="0.880000"/>
    <tag k="gps:vdop" v="1.500000"/>
    <tag k="gps:sat" v="11"/>
    <tag k="gps:fix" v="2d"/>
    <tag k="created_by" v="GPSBabel"/>
    <tag k="name" v="TPT018"/>
    <tag k="amenity" v="pub"/>
    <tag k="building" v="yes"/>
  </node>
  <node id="-20" visible="true" lat="40.7461720" lon="-88.7374700" timestamp="2009-07-06T21:14:30Z">
    <tag k="gps:hdop" v="0.880000"/>
    <tag k="gps:vdop" v="1.500000"/>
    <tag k="gps:sat" v="11"/>
    <tag k="gps:fix" v="2d"/>
    <tag k="created_by" v="GPSBabel"/>
    <tag k="name" v="TPT019"/>
    <tag k="amenity" v="pub"/>
    <tag k="building" v="yes"/>
  </node>
  <way id="-21" visible="true">
    <nd ref="-1"/>
    <nd ref="-2"/>
    <nd ref="-3"/>
    <nd ref="-4"/>
    <nd ref="-5"/>
    <nd ref="-6"/>
    <nd ref="-7"/>
    <nd ref="-8"/>
    <nd ref="-9"/>
    <nd ref="-10"/>
    <nd ref="-11"/>
    <nd ref="-12"/>
    <nd ref="-13"/>
    <nd ref="-14"/>
    <nd ref="-15"/>
    <nd ref="-16"/>
    <nd ref="-17"/>
    <nd ref="-18"/>
    <nd ref="-19"/>
    <nd ref="-20"/>
    <tag k="created_by" v="GPSBabel"/>
    <tag k="highway" v="motorway"/>
  </way>
</osm>
